[{"OBJECT_NAME":"OBJECT F","OBJECT_ID":"2023-072F","EPOCH":"2026-03-09T23:31:37.259904","MEAN_MOTION":15.29470958,"ECCENTRICITY":0.00062878,"INCLINATION":97.5173,"RA_OF_ASC_NODE":265.798,"ARG_OF_PERICENTER":19.0017,"MEAN_ANOMALY":341.1456,"EPHEMERIS_TYPE":0,"CLASSIFICATION_TYPE":"U","NORAD_CAT_ID":56748,"ELEMENT_SET_NO":999,"REV_AT_EPOCH":15460,"BSTAR":0.00043416252,"MEAN_MOTION_DOT":0.00012341,"MEAN_MOTION_DDOT":0},{"OBJECT_NAME":"STARLINK-30571","OBJECT_ID":"2023-158R","EPOCH":"2026-03-09T06:31:02.212896","MEAN_MOTION":15.27039751,"ECCENTRICITY":0.00016569,"INCLINATION":43.0003,"RA_OF_ASC_NODE":29.603,"ARG_OF_PERICENTER":178.1167,"MEAN_ANOMALY":181.9691,"EPHEMERIS_TYPE":0,"CLASSIFICATION_TYPE":"U","NORAD_CAT_ID":58066,"ELEMENT_SET_NO":999,"REV_AT_EPOCH":13350,"BSTAR":0.0022151432,"MEAN_MOTION_DOT":0.00060192,"MEAN_MOTION_DDOT":0}]
